1 08820U 76039A   03112.83599061 -.00000003  00000-0  10000-3 0  9258
2 08820 109.8109 162.6582 0044587 313.2793  46.4213  6.38664530373525
